[{"OBJECT_NAME":"HAWK-11C","OBJECT_ID":"2024-247E","EPOCH":"2026-03-09T12:17:35.407968","MEAN_MOTION":15.2884802,"ECCENTRICITY":0.00059001,"INCLINATION":45.0045,"RA_OF_ASC_NODE":114.8762,"ARG_OF_PERICENTER":329.704,"MEAN_ANOMALY":30.3502,"EPHEMERIS_TYPE":0,"CLASSIFICATION_TYPE":"U","NORAD_CAT_ID":62381,"ELEMENT_SET_NO":999,"REV_AT_EPOCH":6774,"BSTAR":0.00033290115,"MEAN_MOTION_DOT":9.223e-5,"MEAN_MOTION_DDOT":0},{"OBJECT_NAME":"STARLINK-36208","OBJECT_ID":"2025-299G","EPOCH":"2026-03-09T22:00:01.999584","MEAN_MOTION":15.27598092,"ECCENTRICITY":0.00010772,"INCLINATION":42.9994,"RA_OF_ASC_NODE":167.3604,"ARG_OF_PERICENTER":316.6192,"MEAN_ANOMALY":92.7186,"EPHEMERIS_TYPE":0,"CLASSIFICATION_TYPE":"U","NORAD_CAT_ID":67108,"ELEMENT_SET_NO":999,"REV_AT_EPOCH":579,"BSTAR":-0.00043004302,"MEAN_MOTION_DOT":-0.00012083,"MEAN_MOTION_DDOT":0}]
